SL-16 R/B               
1 25400U 98043G   26006.28579210  .00000105  00000+0  62721-4 0  9990
2 25400  98.8159 319.2455 0009583 189.7511 170.3484 14.26032657430098
SL-16 R/B               
1 25407U 98045B   26006.27461457 -.00000170  00000+0 -61879-4 0  9998
2 25407  71.0126 312.8300 0005418 134.5632 225.5934 14.16181258418264
ISS (ZARYA)             
1 25544U 98067A   26006.24223504  .00010833  00000+0  20347-3 0  9999
2 25544  51.6328  21.1584 0007565 346.4032  13.6751 15.49129493546659
CZ-4B R/B               
1 25732U 99025C   26006.08248296  .00000102  00000+0  69843-4 0  9993
2 25732  98.6732  51.8138 0037445 163.5519 225.8425 14.18250562379297
OKEAN-O                 
1 25860U 99039A   26006.12566535  .00000997  00000+0  13798-3 0  9993
2 25860  97.9565  66.6127 0001425 112.6590 247.4773 14.80212146425136
SL-16 R/B               
1 25861U 99039B   26006.16491398  .00000837  00000+0  11304-3 0  9996
2 25861  98.0088  65.3136 0016133  99.7146 260.5889 14.81629750427601
DELTA 2 R/B             
1 25876U 99041E   26006.21259689  .00002440  00000+0  43050-3 0  9991
2 25876  51.7591 190.7470 0504000 163.9009 197.8617 14.11500482354202
HELIOS 1B               
1 25977U 99064A   26006.29164739  .00002172  00000+0  24663-3 0  9998
2 25977  98.1749 266.6865 0000411  63.3742 296.7515 14.87406515675981
TERRA                   
1 25994U 99068A   26006.25636671  .00000650  00000+0  14177-3 0  9994
2 25994  97.9712  62.0368 0002914  44.2719  29.6436 14.60935457385969
SL-16 R/B               
1 26070U 00006B   26006.06183865  .00000067  00000+0  58125-4 0  9999
2 26070  71.0016 229.5186 0018921 276.0042  83.8924 14.15815725339690
TITAN 4B R/B            
1 26474U 00047B   26006.13709496  .00003789  00000+0  24371-3 0  9993
2 26474  67.9875 216.3262 0037339 114.5570 245.9478 15.08990023383478
ENVISAT                 
1 27386U 02009A   26005.89559443  .00000193  00000+0  76295-4 0  9992
2 27386  98.3632 321.0279 0001078  90.4272 337.3404 14.39010190250147
